0 FENGYUN 1C DEB
1 35164U 99025DMU 13283.16062148  .00001282  00000-0  11650-2 0  1506
2 35164 098.6242 055.8233 0221912 022.2787 338.8182 13.74546854315204
0 FENGYUN 1C DEB
1 35164U 99025DMU 13284.61639308  .00001343  00000-0  12196-2 0  1510
2 35164 098.6203 057.1328 0221743 017.9297 342.9812 13.74552295315404
